NORAD_CAT_ID,OBJECT_NAME,OBJECT_TYPE,EPOCH,MEAN_MOTION,ECCENTRICITY,INCLINATION,RA_OF_ASC_NODE,ARG_OF_PERICENTER,MEAN_ANOMALY,BSTAR,MEAN_MOTION_DOT,MEAN_MOTION_DDOT,TLE_LINE0,TLE_LINE1,TLE_LINE2,SEMIMAJOR_AXIS,PERIOD,APOGEE,PERIGEE,DECAYED
54158.0,STARLINK-5297,PAYLOAD,2022-11-14 14:00:01,15.73207733,0.000273,53.2183,57.1237,16.6371,15.7987,0.0003823,0.00053398,0.0,0 STARLINK-5297,1 54158U 22141B   22318.58334491  .00053398  00000-0  38230-3 0  9993,2 54158  53.2183  57.1237 0002730  16.6371  15.7987 15.73207733  2791,6727.873000000001,91.533,351.575,347.901,0.0
54158.0,STARLINK-5297,PAYLOAD,2022-11-14 22:00:00,15.7341299,0.0002356,53.2176,55.471,3.7455,117.61,-0.002984,-0.00403715,0.0,0 STARLINK-5297,1 54158U 22141B   22318.91667824 -.00403715  00000-0 -29840-2 0  9999,2 54158  53.2176  55.4710 0002356   3.7455 117.6100 15.73412990  1302,6727.288000000001,91.521,350.73800000000006,347.5680000000001,0.0
54158.0,STARLINK-5297,PAYLOAD,2022-11-15 04:00:00,15.73355458,0.0002343,53.2175,54.2303,325.567,132.5838,-0.0087429,-0.01106155,0.0,0 STARLINK-5297,1 54158U 22141B   22319.16667824 -.01106155  00000-0 -87429-2 0  9993,2 54158  53.2175  54.2303 0002343 325.5670 132.5838 15.73355458  2889,6727.4519999999975,91.524,350.89300000000014,347.741,0.0
54158.0,STARLINK-5297,PAYLOAD,2022-11-15 12:00:00,15.72549692,0.0004602,53.2174,52.5813,282.8204,263.9578,-0.0096915,-0.01176924,0.0,0 STARLINK-5297,1 54158U 22141B   22319.50001157 -.01176924  00000-0 -96915-2 0  9993,2 54158  53.2174  52.5813 0004602 282.8204 263.9578 15.72549692  2933,6729.75,91.571,354.712,348.51800000000014,0.0
54158.0,STARLINK-5297,PAYLOAD,2022-11-15 14:00:01,15.72348273,0.0005365,53.2175,52.1698,277.5332,21.2426,-0.0099856,-0.01199863,0.0,0 STARLINK-5297,1 54158U 22141B   22319.58334491 -.01199863  00000-0 -99856-2 0  9995,2 54158  53.2175  52.1698 0005365 277.5332  21.2426 15.72348273  1300,6730.325,91.583,355.8,348.579,0.0
54158.0,STARLINK-5297,PAYLOAD,2022-11-15 22:00:00,15.71477755,0.0006886,53.2174,50.5224,271.1984,114.9464,-0.01013,-0.01176885,0.0,0 STARLINK-5297,1 54158U 22141B   22319.91667824 -.01176885  00000-0 -10130-1 0  9997,2 54158  53.2174  50.5224 0006886 271.1984 114.9464 15.71477755  3006,6732.81,91.633,359.311,350.039,0.0
54158.0,STARLINK-5297,PAYLOAD,2022-11-16 14:00:01,15.69766532,0.000136,53.2174,47.2369,273.9609,283.8856,-0.010965,-0.01200896,0.0,0 STARLINK-5297,1 54158U 22141B   22320.58335648 -.01200896  00000-0 -10965-1 0  9994,2 54158  53.2174  47.2369 0001360 273.9609 283.8856 15.69766532  3108,6737.7019999999975,91.733,360.483,358.651,0.0
54158.0,STARLINK-5297,PAYLOAD,2022-11-16 22:00:08,15.6890459,6.02e-05,53.2173,45.5953,88.5839,193.9317,-0.011275,-0.01191874,0.0,0 STARLINK-5297,1 54158U 22141B   22320.91675926 -.01191874  00000-0 -11275-1 0  9997,2 54158  53.2173  45.5953 0000602  88.5839 193.9317 15.68904590  1300,6740.17,91.784,362.44,361.629,0.0
54158.0,STARLINK-5297,PAYLOAD,2022-11-17 12:00:00,15.67420989,0.0001069,53.2177,42.7323,69.0157,268.0322,-0.012206,-0.01211638,0.0,0 STARLINK-5297,1 54158U 22141B   22321.50001157 -.01211638  00000-0 -12206-1 0  9998,2 54158  53.2177  42.7323 0001069  69.0157 268.0322 15.67420989  3259,6744.422,91.871,367.008,365.566,0.0
54158.0,STARLINK-5297,PAYLOAD,2022-11-17 14:00:01,15.67198578,0.0001256,53.2178,42.3236,65.2184,22.2914,-0.012209,-0.01202061,0.0,0 STARLINK-5297,1 54158U 22141B   22321.58334491 -.01202061  00000-0 -12209-1 0  9999,2 54158  53.2178  42.3236 0001256  65.2184  22.2914 15.67198578  1302,6745.06,91.884,367.772,366.078,0.0
54158.0,STARLINK-5297,PAYLOAD,2022-11-17 22:00:00,15.66343493,0.0001405,53.2175,40.6885,51.1376,117.5564,-0.012683,-0.01205594,0.0,0 STARLINK-5297,1 54158U 22141B   22321.91667824 -.01205594  00000-0 -12683-1 0  9995,2 54158  53.2175  40.6885 0001405  51.1376 117.5564 15.66343493  1309,6747.515,91.934,370.328,368.432,0.0
54158.0,STARLINK-5297,PAYLOAD,2022-11-18 14:00:01,15.64516962,0.0001206,53.2178,37.4287,48.4987,279.5264,-0.01176,-0.01037013,0.0,0 STARLINK-5297,1 54158U 22141B   22322.58334491 -.01037013  00000-0 -11760-1 0  9994,2 54158  53.2178  37.4287 0001206  48.4987 279.5264 15.64516962  3420,6752.765,92.041,375.445,373.816,0.0
54158.0,STARLINK-5297,PAYLOAD,2022-11-18 20:00:01,15.63989988,0.0001216,53.2171,36.2071,51.1904,245.4448,-0.013975,-0.01208006,0.0,0 STARLINK-5297,1 54158U 22141B   22322.83334491 -.01208006  00000-0 -13975-1 0  9994,2 54158  53.2171  36.2071 0001216  51.1904 245.4448 15.63989988  3452,6754.281999999997,92.072,376.968,375.326,0.0
54158.0,STARLINK-5297,PAYLOAD,2022-11-18 22:00:00,15.6376589,0.0001301,53.2174,35.7991,47.46,358.6082,-0.013936,-0.01195358,0.0,0 STARLINK-5297,1 54158U 22141B   22322.91667824 -.01195358  00000-0 -13936-1 0  9994,2 54158  53.2174  35.7991 0001301  47.4600 358.6082 15.63765890  1303,6754.927,92.085,377.671,375.914,0.0
54158.0,STARLINK-5297,PAYLOAD,2022-11-19 14:00:01,15.62065629,0.000149,53.2177,32.5521,47.7828,151.3747,-0.015138,-0.01212323,0.0,0 STARLINK-5297,1 54158U 22141B   22323.58334491 -.01212323  00000-0 -15138-1 0  9997,2 54158  53.2177  32.5521 0001490  47.7828 151.3747 15.62065629  1302,6759.828,92.186,382.7,380.686,0.0
54158.0,STARLINK-5297,PAYLOAD,2022-11-19 20:00:01,15.61354601,0.0001518,53.2175,31.3351,36.2752,129.2675,-0.014323,-0.01124653,0.0,0 STARLINK-5297,1 54158U 22141B   22323.83334491 -.01124653  00000-0 -14323-1 0  9998,2 54158  53.2175  31.3351 0001518  36.2752 129.2675 15.61354601  3618,6761.88,92.228,384.772,382.719,0.0
54158.0,STARLINK-5297,PAYLOAD,2022-11-19 22:00:00,15.61183142,0.0001324,53.2177,30.9295,41.7143,232.4597,-0.015187,-0.01178622,0.0,0 STARLINK-5297,1 54158U 22141B   22323.91667824 -.01178622  00000-0 -15187-1 0  9990,2 54158  53.2177  30.9295 0001324  41.7143 232.4597 15.61183142  1306,6762.375,92.238,385.136,383.345,0.0
54158.0,STARLINK-5297,PAYLOAD,2022-11-20 06:00:00,15.60367984,0.0001481,53.2175,29.3093,39.9705,308.1582,-0.016509,-0.01234927,0.0,0 STARLINK-5297,1 54158U 22141B   22324.25001157 -.01234927  00000-0 -16509-1 0  9999,2 54158  53.2175  29.3093 0001481  39.9705 308.1582 15.60367984  3684,6764.73,92.286,387.597,385.593,0.0
54158.0,STARLINK-5297,PAYLOAD,2022-11-20 14:00:01,15.59479108,0.0001548,53.2179,27.6944,43.0273,18.0589,-0.016423,-0.01191916,0.0,0 STARLINK-5297,1 54158U 22141B   22324.58334491 -.01191916  00000-0 -16423-1 0  9990,2 54158  53.2179  27.6944 0001548  43.0273  18.0589 15.59479108  1305,6767.301,92.339,390.213,388.11800000000005,0.0
54158.0,STARLINK-5297,PAYLOAD,2022-11-20 22:00:00,15.58619234,0.0001484,53.2176,26.0764,45.7592,87.2437,-0.016902,-0.01187446,0.0,0 STARLINK-5297,1 54158U 22141B   22324.91667824 -.01187446  00000-0 -16902-1 0  9991,2 54158  53.2176  26.0764 0001484  45.7592  87.2437 15.58619234  1302,6769.7890000000025,92.389,392.659,390.65,0.0
54158.0,STARLINK-5297,PAYLOAD,2022-11-21 14:00:01,15.56924338,0.0001341999999999,53.2177,22.8554,53.0748,220.6537,-0.01843,-0.01211491,0.0,0 STARLINK-5297,1 54158U 22141B   22325.58334491 -.01211491  00000-0 -18430-1 0  9992,2 54158  53.2177  22.8554 0001342  53.0748 220.6537 15.56924338  3883,6774.7019999999975,92.49,397.476,395.657,0.0
54158.0,STARLINK-5297,PAYLOAD,2022-11-21 22:00:00,15.56048879,0.0001472,53.2174,21.2441,33.8186,308.7449,-0.018648,-0.01188818,0.0,0 STARLINK-5297,1 54158U 22141B   22325.91667824 -.01188818  00000-0 -18648-1 0  9995,2 54158  53.2174  21.2441 0001472  33.8186 308.7449 15.56048879  1306,6777.2419999999975,92.542,400.105,398.11,0.0
54158.0,STARLINK-5297,PAYLOAD,2022-11-22 14:00:01,15.54394431,0.0001593,53.2176,18.0348,41.973,75.1813,-0.021254,-0.01285794,0.0,0 STARLINK-5297,1 54158U 22141B   22326.58335648 -.01285794  00000-0 -21254-1 0  9993,2 54158  53.2176  18.0348 0001593  41.9730  75.1813 15.54394431  4047,6782.051,92.641,404.996,402.835,0.0
54158.0,STARLINK-5297,PAYLOAD,2022-11-22 22:00:00,15.53478989,0.0001704,53.2177,16.4299,41.3112,141.5424,-0.020507,-0.0120711,0.0,0 STARLINK-5297,1 54158U 22141B   22326.91667824 -.01207110  00000-0 -20507-1 0  9990,2 54158  53.2177  16.4299 0001704  41.3112 141.5424 15.53478989  1309,6784.715,92.695,407.736,405.424,0.0
54158.0,STARLINK-5297,PAYLOAD,2022-11-23 06:00:00,15.52644297,0.0001585,53.2176,14.8293,45.6915,201.8544,-0.021715,-0.01236922,0.0,0 STARLINK-5297,1 54158U 22141B   22327.25001157 -.01236922  00000-0 -21715-1 0  9994,2 54158  53.2176  14.8293 0001585  45.6915 201.8544 15.52644297  4143,6787.146,92.745,410.087,407.935,0.0
54158.0,STARLINK-5297,PAYLOAD,2022-11-23 14:00:01,15.51765967,0.0001546,53.2177,13.2325,38.6129,272.6162,-0.021844,-0.01208035,0.0,0 STARLINK-5297,1 54158U 22141B   22327.58334491 -.01208035  00000-0 -21844-1 0  9997,2 54158  53.2177  13.2325 0001546  38.6129 272.6162 15.51765967  1303,6789.706999999999,92.797,412.622,410.522,0.0
54158.0,STARLINK-5297,PAYLOAD,2022-11-23 22:00:00,15.5090298,0.0001568,53.2176,11.6331,32.7325,341.1453,-0.022386,-0.01200828,0.0,0 STARLINK-5297,1 54158U 22141B   22327.91667824 -.01200828  00000-0 -22386-1 0  9997,2 54158  53.2176  11.6331 0001568  32.7325 341.1453 15.50902980  1300,6792.225,92.849,415.155,413.025,0.0
54158.0,STARLINK-5297,PAYLOAD,2022-11-24 06:00:02,15.500878899999998,0.000155,53.2176,10.0399,34.1489,41.3853,-0.024233,-0.01256896,0.0,0 STARLINK-5297,1 54158U 22141B   22328.25002315 -.01256896  00000-0 -24233-1 0  9992,2 54158  53.2176  10.0399 0001550  34.1489  41.3853 15.50087890  4305,6794.606,92.898,417.524,415.418,0.0
54158.0,STARLINK-5297,PAYLOAD,2022-11-24 14:00:01,15.4920359,0.0001825,53.2174,8.4492,39.5377,96.5276,-0.024172,-0.01218727,0.0,0 STARLINK-5297,1 54158U 22141B   22328.58334491 -.01218727  00000-0 -24172-1 0  9994,2 54158  53.2174   8.4492 0001825  39.5377  96.5276 15.49203590  1301,6797.191999999999,92.951,420.297,417.816,0.0
